1 53093U 93036BYP 25165.74420254  .00002125  00000+0  66972-3 0  9990
2 53093  74.0369 276.5695 0021719  43.1002 317.1849 14.40827420151182